     2.100          NAVIGATION                              RINEX VERSION / TYPE
fic2rin                                 07/10/2008 01:20:00 PGM / RUN BY / DATE
                                                            END OF HEADER
14 08  7  9 18  0  0.0 -.246103852987D-03  .443378667114D-11  .000000000000D+00
     .420000000000D+02 -.358437500000D+02  .385766068705D-08 -.135169854733D+01
    -.170432031155D-05  .384579855017D-02  .869669020176D-05  .515371494865D+04
     .324000000000D+06  .689178705215D-07  .120984727948D+01  .428408384323D-07
     .989098261947D+00  .225406250000D+03 -.218484793093D+01 -.772567894840D-08
     .592881838766D-10  .100000000000D+01  .148700000000D+04  .000000000000D+00
     .240000000000D+01  .000000000000D+00 -.884756445885D-08  .420000000000D+02
     .316806000000D+06  .400000000000D+01
15 08  7  9 18  0  0.0 -.140021089464D-03 -.625277607469D-11  .000000000000D+00
     .940000000000D+02 -.220625000000D+02  .455376111100D-08 -.446425144611D+00
    -.140070915222D-05  .666089239530D-03  .871531665325D-05  .515367925072D+04
     .324000000000D+06  .242143869400D-07  .116743649146D+01 -.223517417908D-07
     .957475754526D+00  .209937500000D+03 -.124621840289D+01 -.813498171178D-08
     .292869342041D-10  .100000000000D+01  .148700000000D+04  .000000000000D+00
     .240000000000D+01  .000000000000D+00 -.977888703346D-08  .940000000000D+02
     .316806000000D+06  .400000000000D+01
16 08  7  9 18  0  0.0  .117735005915D-03 -.170530256582D-11  .000000000000D+00
     .300000000000D+02 -.402500000000D+02  .467448042516D-08  .460855235419D+00
    -.232644379139D-05  .478041509632D-02  .627338886261D-05  .515362328529D+04
     .324000000000D+06  .577419996262D-07 -.299043569508D+01 -.335276126862D-07
     .966225912285D+00  .260531250000D+03 -.452838950514D+00 -.816676875013D-08
    -.226795161215D-09  .100000000000D+01  .148700000000D+04  .000000000000D+00
     .240000000000D+01  .000000000000D+00 -.977888703346D-08  .300000000000D+02
     .316806000000D+06  .400000000000D+01
17 08  7  9 18  0  0.0  .386042520404D-04  .000000000000D+00  .000000000000D+00
     .780000000000D+02  .625000000000D+00  .443875632059D-08 -.795020874256D+00
    -.122934579849D-06  .364496384282D-02  .999122858047D-05  .515377670097D+04
     .324000000000D+06  .165775418282D-06 -.194951097227D+01  .167638063431D-07
     .959363999944D+00  .190687500000D+03 -.275942816348D+01 -.792425864861D-08
    -.245010205659D-09  .100000000000D+01  .148700000000D+04  .000000000000D+00
     .240000000000D+01  .000000000000D+00 -.102445483208D-07  .780000000000D+02
     .316806000000D+06  .400000000000D+01
18 08  7  9 18  0  0.0 -.158315058798D-03  .432009983342D-11  .000000000000D+00
     .430000000000D+02  .184375000000D+01  .498770775805D-08  .631186115527D+00
     .223517417908D-07  .956443778705D-02  .469200313091D-05  .515369774437D+04
     .324000000000D+06 -.121071934700D-06  .167733267175D+00  .197440385818D-06
     .947424506685D+00  .283750000000D+03 -.249815042252D+01 -.852785521940D-08
    -.155006456641D-09  .100000000000D+01  .148700000000D+04  .000000000000D+00
     .240000000000D+01  .000000000000D+00 -.107102096081D-07  .430000000000D+02
     .316806000000D+06  .400000000000D+01
19 08  7  9 18  0  0.0  .332873314619D-04  .568434188608D-12  .000000000000D+00
     .940000000000D+02 -.418750000000D+01  .441339812146D-08 -.117652457159D+01
    -.124797224998D-06  .483016995713D-02  .101439654827D-04  .515370484161D+04
     .324000000000D+06 -.165775418282D-06 -.189252599894D+01  .316649675369D-07
     .957116407717D+00  .184343750000D+03 -.574788293142D+00 -.789032866386D-08
    -.996470078407D-10  .100000000000D+01  .148700000000D+04  .000000000000D+00
     .240000000000D+01  .000000000000D+00 -.144354999065D-07  .940000000000D+02
     .316806000000D+06  .400000000000D+01
20 08  7  9 18  0  0.0  .110297463834D-03 -.909494701773D-12  .000000000000D+00
     .105000000000D+03  .453125000000D+01  .492913388964D-08  .696184747826D+00
     .372529029846D-08  .361625407822D-02  .442191958427D-05  .515353362465D+04
     .324000000000D+06 -.745058059692D-08  .114128338269D+00  .186264514923D-08
     .946944213125D+00  .283781250000D+03  .135179685542D+01 -.848178187169D-08
    -.646455498895D-10  .100000000000D+01  .148700000000D+04  .000000000000D+00
     .340000000000D+01  .000000000000D+00 -.651925802231D-08  .105000000000D+03
     .316806000000D+06  .400000000000D+01
21 08  7  9 18  0  0.0  .585815869272D-04 -.125055521494D-11  .000000000000D+00
     .670000000000D+02  .756562500000D+02  .505378193887D-08  .181033321354D+01
     .395067036152D-05  .141367906472D-01  .756233930588D-05  .515370803070D+04
     .324000000000D+06 -.195577740669D-06 -.890284079288D+00  .108033418655D-06
     .935779909915D+00  .222468750000D+03 -.270153873665D+01 -.842606526515D-08
     .535736601294D-11  .100000000000D+01  .148700000000D+04  .000000000000D+00
     .340000000000D+01  .000000000000D+00 -.116415321827D-07  .670000000000D+02
     .316806000000D+06  .400000000000D+01
22 08  7  9 18  0  0.0  .211512204260D-03  .227373675443D-12  .000000000000D+00
     .280000000000D+02  .625000000000D-01  .504235289138D-08 -.645696407893D+00
     .745058059692D-07  .492738641333D-02  .467337667942D-05  .515366424179D+04
     .324000000000D+06 -.465661287308D-07  .174129657039D+00  .104308128357D-06
     .945064095679D+00  .283718750000D+03 -.182660754812D+01 -.854499879064D-08
    -.400016662300D-10  .100000000000D+01  .148700000000D+04  .000000000000D+00
     .240000000000D+01  .000000000000D+00 -.181607902050D-07  .280000000000D+02
     .316806000000D+06  .400000000000D+01
23 08  7  9 18  0  0.0  .363519415259D-03  .193267624127D-11  .000000000000D+00
     .250000000000D+02 -.232812500000D+02  .427696386700D-08 -.186169150843D+01
    -.131689012051D-05  .572862522677D-02  .863336026669D-05  .515372019386D+04
     .324000000000D+06 -.100582838058D-06  .118294744905D+01 -.782310962677D-07
     .971234458099D+00  .226125000000D+03  .276371522882D+01 -.794211653532D-08
     .108218793461D-09  .100000000000D+01  .148700000000D+04  .000000000000D+00
     .240000000000D+01  .000000000000D+00 -.200234353542D-07  .250000000000D+02
     .316806000000D+06  .400000000000D+01
24 08  7  9 18  0  0.0  .108195003122D-03  .295585778076D-11  .000000000000D+00
     .740000000000D+02  .712187500000D+02  .475769817723D-08  .456837598628D+00
     .369362533092D-05  .765478739049D-02  .688061118126D-05  .515366860008D+04
     .324000000000D+06  .782310962677D-07 -.863598411289D+00 -.124797224998D-06
     .952451951938D+00  .240812500000D+03 -.728720003485D+00 -.837249160502D-08
     .159649507186D-09  .100000000000D+01  .148700000000D+04  .000000000000D+00
     .340000000000D+01  .000000000000D+00 -.139698386192D-08  .740000000000D+02
     .316806000000D+06  .400000000000D+01
25 08  7  9 18  0  0.0 -.185360200703D-03 -.977706804406D-11  .000000000000D+00
     .550000000000D+02 -.203125000000D+01  .464126475588D-08  .959101170619D+00
    -.195577740669D-06  .116595750442D-01  .695697963238D-05  .515370023727D+04
     .324000000000D+06 -.135973095894D-06  .213184521372D+01 -.275671482086D-06
     .965322826622D+00  .251343750000D+03 -.124736397308D+01 -.824212903204D-08
     .320370487574D-09  .100000000000D+01  .148700000000D+04  .000000000000D+00
     .340000000000D+01  .000000000000D+00 -.745058059692D-08  .550000000000D+02
     .316806000000D+06  .400000000000D+01
26 08  7  9 18  0  0.0  .289376825094D-03  .693489710102D-11  .000000000000D+00
     .880000000000D+02 -.232187500000D+02  .369979696854D-08 -.246688415906D+01
    -.153668224812D-05  .191671242937D-01  .891089439392D-05  .515362112999D+04
     .324000000000D+06  .303611159325D-06  .122595220814D+01 -.156462192535D-06
     .993308512384D+00  .219718750000D+03  .946119765160D+00 -.747352558805D-08
     .206437170365D-09  .100000000000D+01  .148700000000D+04  .000000000000D+00
     .240000000000D+01  .000000000000D+00 -.605359673500D-08  .880000000000D+02
     .316806000000D+06  .400000000000D+01
27 08  7  9 18  0  0.0  .201598741114D-03  .284217094304D-11  .000000000000D+00
     .109000000000D+03 -.359375000000D+01  .465305096111D-08  .964881636862D+00
    -.270083546638D-06  .211023142328D-01  .745803117752D-05  .515375577354D+04
     .324000000000D+06 -.426545739174D-06  .216676728898D+01 -.100582838058D-06
     .969931242398D+00  .249500000000D+03 -.170023011631D+01 -.844463746733D-08
     .237152735506D-09  .100000000000D+01  .148700000000D+04  .000000000000D+00
     .340000000000D+01  .000000000000D+00 -.419095158577D-08  .109000000000D+03
     .316806000000D+06  .400000000000D+01
28 08  7  9 18  0  0.0 -.208714045584D-04 -.341060513165D-12  .000000000000D+00
     .450000000000D+02 -.409062500000D+02  .478484216502D-08 -.300704004935D+00
    -.210851430893D-05  .138243964175D-01  .639073550701D-05  .515371429443D+04
     .324000000000D+06 -.912696123123D-07 -.298182911688D+01  .968575477600D-07
     .964379074762D+00  .257343750000D+03 -.209465558471D+01 -.844106588999D-08
    -.244295890190D-09  .100000000000D+01  .148700000000D+04  .000000000000D+00
     .340000000000D+01  .000000000000D+00 -.102445483208D-07  .450000000000D+02
     .316806000000D+06  .400000000000D+01
29 08  7  9 18  0  0.0 -.418056733906D-04  .454747350886D-12  .000000000000D+00
     .740000000000D+02  .562500000000D+00  .442482716896D-08  .191014319137D+01
    -.104308128357D-06  .373311690055D-02  .103116035461D-04  .515364030457D+04
     .324000000000D+06  .104308128357D-06 -.194134274869D+01 -.372529029846D-07
     .959483297988D+00  .176343750000D+03 -.139492795212D+01 -.786818488434D-08
    -.252153360342D-09  .100000000000D+01  .148700000000D+04  .000000000000D+00
     .240000000000D+01  .000000000000D+00 -.884756445885D-08  .740000000000D+02
     .316806000000D+06  .400000000000D+01
